STARLINK-30950          
1 58440U 23183D   26068.43140173 -.00004482  00000+0 -15336-3 0  9993
2 58440  42.9999 206.5850 0001087 221.0616 139.0154 15.27600190128998
AL MUNTHER              
1 63240U 25052AG  26068.64540749  .00017933  00000+0  65015-3 0  9992
2 63240  97.4001 323.9152 0008027 130.7043 229.4895 15.28381521 54798
